[{"OBJECT_NAME":"TIANHUI 2-01A","OBJECT_ID":"2019-024A","EPOCH":"2026-03-09T12:59:11.452128","MEAN_MOTION":15.16798964,"ECCENTRICITY":0.0001542,"INCLINATION":97.4822,"RA_OF_ASC_NODE":73.7961,"ARG_OF_PERICENTER":95.9688,"MEAN_ANOMALY":264.172,"EPHEMERIS_TYPE":0,"CLASSIFICATION_TYPE":"U","NORAD_CAT_ID":44207,"ELEMENT_SET_NO":999,"REV_AT_EPOCH":8703,"BSTAR":0.00014721,"MEAN_MOTION_DOT":2.825e-5,"MEAN_MOTION_DDOT":0},{"OBJECT_NAME":"STARLINK-30365","OBJECT_ID":"2023-131C","EPOCH":"2026-03-09T22:00:01.999584","MEAN_MOTION":15.11740629,"ECCENTRICITY":0.00010893,"INCLINATION":42.9996,"RA_OF_ASC_NODE":170.4181,"ARG_OF_PERICENTER":243.5279,"MEAN_ANOMALY":327.2322,"EPHEMERIS_TYPE":0,"CLASSIFICATION_TYPE":"U","NORAD_CAT_ID":57734,"ELEMENT_SET_NO":999,"REV_AT_EPOCH":543,"BSTAR":0.080452759,"MEAN_MOTION_DOT":0.01512441,"MEAN_MOTION_DDOT":0}]
